ONEWEB-0507             
1 54125U 22138N   26131.19758959  .00000041  00000+0  70042-4 0  9990
2 54125  87.9145 312.3527 0001787  83.4164 276.7172 13.19725374171974
ONEWEB-0508             
1 54126U 22138P   26131.04280169  .00000023  00000+0  24922-4 0  9994
2 54126  87.9146 312.3832 0001698  75.2234 284.9087 13.19725761171935
ONEWEB-0509             
1 54127U 22138Q   26131.01753659  .00000036  00000+0  58664-4 0  9995
2 54127  87.9157 312.3739 0001804  86.7293 273.4046 13.19725392171900
ONEWEB-0510             
1 54128U 22138R   26131.16239885 -.00000046  00000+0 -14401-3 0  9995
2 54128  87.9159 281.8207 0002019 110.2374 249.8977 13.20700771174397
ONEWEB-0511             
1 54129U 22138S   26131.01435830  .00000004  00000+0 -21659-4 0  9995
2 54129  87.9155 312.3784 0002098  89.3483 270.7890 13.19723847171939
ONEWEB-0512             
1 54130U 22138T   26131.00647213  .00000028  00000+0  36761-4 0  9991
2 54130  87.9145 312.3877 0002013  81.8574 278.2787 13.19726255171909
ONEWEB-0513             
1 54131U 22138U   26131.02734361 -.00000006  00000+0 -47246-4 0  9993
2 54131  87.9154 312.3323 0002585  75.8186 284.3234 13.20266667171815
ONEWEB-0514             
1 54132U 22138V   26131.02226684 -.00000006  00000+0 -48275-4 0  9991
2 54132  87.9154 312.3747 0001815  94.4978 265.6362 13.19725343171922
ONEWEB-0515             
1 54133U 22138W   26131.14941619  .00000027  00000+0  33312-4 0  9994
2 54133  87.9165 281.8159 0001407 122.8353 237.2915 13.20812635174411
ONEWEB-0516             
1 54134U 22138X   26131.07281573  .00000121  00000+0  26967-3 0  9995
2 54134  87.9145 312.3747 0001690  86.5801 273.5525 13.19725631171932
ONEWEB-0517             
1 54135U 22138Y   26131.05227565  .00000006  00000+0 -16332-4 0  9994
2 54135  87.9151 312.3689 0002100  94.0277 266.1096 13.19725945171932
ONEWEB-0518             
1 54136U 22138Z   26131.07122553  .00000057  00000+0  11066-3 0  9991
2 54136  87.9143 312.3767 0001701  85.0076 275.1251 13.19724640171938
ONEWEB-0519             
1 54137U 22138AA  26131.02068082 -.00000001  00000+0 -35032-4 0  9994
2 54137  87.9159 312.3739 0002016  92.1121 268.0242 13.19725974171937
ONEWEB-0520             
1 54138U 22138AB  26131.05544216  .00000047  00000+0  84971-4 0  9990
2 54138  87.9153 312.3679 0001820  81.6919 278.4420 13.19725012171920
ONEWEB-0521             
1 54139U 22138AC  26131.01278676  .00000027  00000+0  34580-4 0  9990
2 54139  87.9156 312.3649 0002001  95.5488 264.5873 13.19724416171866
ONEWEB-0522             
1 54140U 22138AD  26131.06807606  .00000057  00000+0  10939-3 0  9992
2 54140  87.9156 312.3557 0001871  85.7820 274.3526 13.19725314171919
