[{"OBJECT_NAME":"ONEWEB-0507","OBJECT_ID":"2022-138N","EPOCH":"2026-05-11T04:44:31.740576","MEAN_MOTION":13.19725374,"ECCENTRICITY":0.0001787,"INCLINATION":87.9145,"RA_OF_ASC_NODE":312.3527,"ARG_OF_PERICENTER":83.4164,"MEAN_ANOMALY":276.7172,"EPHEMERIS_TYPE":0,"CLASSIFICATION_TYPE":"U","NORAD_CAT_ID":54125,"ELEMENT_SET_NO":999,"REV_AT_EPOCH":17197,"BSTAR":7.0042e-05,"MEAN_MOTION_DOT":4.1e-07,"MEAN_MOTION_DDOT":0.0},{"OBJECT_NAME":"ONEWEB-0508","OBJECT_ID":"2022-138P","EPOCH":"2026-05-11T01:01:38.066016","MEAN_MOTION":13.19725761,"ECCENTRICITY":0.0001698,"INCLINATION":87.9146,"RA_OF_ASC_NODE":312.3832,"ARG_OF_PERICENTER":75.2234,"MEAN_ANOMALY":284.9087,"EPHEMERIS_TYPE":0,"CLASSIFICATION_TYPE":"U","NORAD_CAT_ID":54126,"ELEMENT_SET_NO":999,"REV_AT_EPOCH":17193,"BSTAR":2.4922e-05,"MEAN_MOTION_DOT":2.3e-07,"MEAN_MOTION_DDOT":0.0},{"OBJECT_NAME":"ONEWEB-0509","OBJECT_ID":"2022-138Q","EPOCH":"2026-05-11T00:25:15.161376","MEAN_MOTION":13.19725392,"ECCENTRICITY":0.0001804,"INCLINATION":87.9157,"RA_OF_ASC_NODE":312.3739,"ARG_OF_PERICENTER":86.7293,"MEAN_ANOMALY":273.4046,"EPHEMERIS_TYPE":0,"CLASSIFICATION_TYPE":"U","NORAD_CAT_ID":54127,"ELEMENT_SET_NO":999,"REV_AT_EPOCH":17190,"BSTAR":5.8664000000000006e-05,"MEAN_MOTION_DOT":3.6e-07,"MEAN_MOTION_DDOT":0.0},{"OBJECT_NAME":"ONEWEB-0510","OBJECT_ID":"2022-138R","EPOCH":"2026-05-11T03:53:51.260640","MEAN_MOTION":13.20700771,"ECCENTRICITY":0.0002019,"INCLINATION":87.9159,"RA_OF_ASC_NODE":281.8207,"ARG_OF_PERICENTER":110.2374,"MEAN_ANOMALY":249.8977,"EPHEMERIS_TYPE":0,"CLASSIFICATION_TYPE":"U","NORAD_CAT_ID":54128,"ELEMENT_SET_NO":999,"REV_AT_EPOCH":17439,"BSTAR":-0.00014401,"MEAN_MOTION_DOT":-4.6e-07,"MEAN_MOTION_DDOT":0.0},{"OBJECT_NAME":"ONEWEB-0511","OBJECT_ID":"2022-138S","EPOCH":"2026-05-11T00:20:40.557120","MEAN_MOTION":13.19723847,"ECCENTRICITY":0.0002098,"INCLINATION":87.9155,"RA_OF_ASC_NODE":312.3784,"ARG_OF_PERICENTER":89.3483,"MEAN_ANOMALY":270.789,"EPHEMERIS_TYPE":0,"CLASSIFICATION_TYPE":"U","NORAD_CAT_ID":54129,"ELEMENT_SET_NO":999,"REV_AT_EPOCH":17193,"BSTAR":-2.1659e-05,"MEAN_MOTION_DOT":4e-08,"MEAN_MOTION_DDOT":0.0},{"OBJECT_NAME":"ONEWEB-0512","OBJECT_ID":"2022-138T","EPOCH":"2026-05-11T00:09:19.192032","MEAN_MOTION":13.19726255,"ECCENTRICITY":0.0002013,"INCLINATION":87.9145,"RA_OF_ASC_NODE":312.3877,"ARG_OF_PERICENTER":81.8574,"MEAN_ANOMALY":278.2787,"EPHEMERIS_TYPE":0,"CLASSIFICATION_TYPE":"U","NORAD_CAT_ID":54130,"ELEMENT_SET_NO":999,"REV_AT_EPOCH":17190,"BSTAR":3.6761e-05,"MEAN_MOTION_DOT":2.8e-07,"MEAN_MOTION_DDOT":0.0},{"OBJECT_NAME":"ONEWEB-0513","OBJECT_ID":"2022-138U","EPOCH":"2026-05-11T00:39:22.487904","MEAN_MOTION":13.20266667,"ECCENTRICITY":0.0002585,"INCLINATION":87.9154,"RA_OF_ASC_NODE":312.3323,"ARG_OF_PERICENTER":75.8186,"MEAN_ANOMALY":284.3234,"EPHEMERIS_TYPE":0,"CLASSIFICATION_TYPE":"U","NORAD_CAT_ID":54131,"ELEMENT_SET_NO":999,"REV_AT_EPOCH":17181,"BSTAR":-4.7246e-05,"MEAN_MOTION_DOT":-6e-08,"MEAN_MOTION_DDOT":0.0},{"OBJECT_NAME":"ONEWEB-0514","OBJECT_ID":"2022-138V","EPOCH":"2026-05-11T00:32:03.854976","MEAN_MOTION":13.19725343,"ECCENTRICITY":0.0001815,"INCLINATION":87.9154,"RA_OF_ASC_NODE":312.3747,"ARG_OF_PERICENTER":94.4978,"MEAN_ANOMALY":265.6362,"EPHEMERIS_TYPE":0,"CLASSIFICATION_TYPE":"U","NORAD_CAT_ID":54132,"ELEMENT_SET_NO":999,"REV_AT_EPOCH":17192,"BSTAR":-4.8275e-05,"MEAN_MOTION_DOT":-6e-08,"MEAN_MOTION_DDOT":0.0},{"OBJECT_NAME":"ONEWEB-0515","OBJECT_ID":"2022-138W","EPOCH":"2026-05-11T03:35:09.558816","MEAN_MOTION":13.20812635,"ECCENTRICITY":0.0001407,"INCLINATION":87.9165,"RA_OF_ASC_NODE":281.8159,"ARG_OF_PERICENTER":122.8353,"MEAN_ANOMALY":237.2915,"EPHEMERIS_TYPE":0,"CLASSIFICATION_TYPE":"U","NORAD_CAT_ID":54133,"ELEMENT_SET_NO":999,"REV_AT_EPOCH":17441,"BSTAR":3.3312e-05,"MEAN_MOTION_DOT":2.7e-07,"MEAN_MOTION_DDOT":0.0},{"OBJECT_NAME":"ONEWEB-0516","OBJECT_ID":"2022-138X","EPOCH":"2026-05-11T01:44:51.279072","MEAN_MOTION":13.19725631,"ECCENTRICITY":0.000169,"INCLINATION":87.9145,"RA_OF_ASC_NODE":312.3747,"ARG_OF_PERICENTER":86.5801,"MEAN_ANOMALY":273.5525,"EPHEMERIS_TYPE":0,"CLASSIFICATION_TYPE":"U","NORAD_CAT_ID":54134,"ELEMENT_SET_NO":999,"REV_AT_EPOCH":17193,"BSTAR":0.00026967,"MEAN_MOTION_DOT":1.21e-06,"MEAN_MOTION_DDOT":0.0},{"OBJECT_NAME":"ONEWEB-0517","OBJECT_ID":"2022-138Y","EPOCH":"2026-05-11T01:15:16.616160","MEAN_MOTION":13.19725945,"ECCENTRICITY":0.00021,"INCLINATION":87.9151,"RA_OF_ASC_NODE":312.3689,"ARG_OF_PERICENTER":94.0277,"MEAN_ANOMALY":266.1096,"EPHEMERIS_TYPE":0,"CLASSIFICATION_TYPE":"U","NORAD_CAT_ID":54135,"ELEMENT_SET_NO":999,"REV_AT_EPOCH":17193,"BSTAR":-1.6332e-05,"MEAN_MOTION_DOT":6e-08,"MEAN_MOTION_DDOT":0.0},{"OBJECT_NAME":"ONEWEB-0518","OBJECT_ID":"2022-138Z","EPOCH":"2026-05-11T01:42:33.885792","MEAN_MOTION":13.1972464,"ECCENTRICITY":0.0001701,"INCLINATION":87.9143,"RA_OF_ASC_NODE":312.3767,"ARG_OF_PERICENTER":85.0076,"MEAN_ANOMALY":275.1251,"EPHEMERIS_TYPE":0,"CLASSIFICATION_TYPE":"U","NORAD_CAT_ID":54136,"ELEMENT_SET_NO":999,"REV_AT_EPOCH":17193,"BSTAR":0.00011066,"MEAN_MOTION_DOT":5.7e-07,"MEAN_MOTION_DDOT":0.0},{"OBJECT_NAME":"ONEWEB-0519","OBJECT_ID":"2022-138AA","EPOCH":"2026-05-11T00:29:46.822848","MEAN_MOTION":13.19725974,"ECCENTRICITY":0.0002016,"INCLINATION":87.9159,"RA_OF_ASC_NODE":312.3739,"ARG_OF_PERICENTER":92.1121,"MEAN_ANOMALY":268.0242,"EPHEMERIS_TYPE":0,"CLASSIFICATION_TYPE":"U","NORAD_CAT_ID":54137,"ELEMENT_SET_NO":999,"REV_AT_EPOCH":17193,"BSTAR":-3.5032000000000006e-05,"MEAN_MOTION_DOT":-1e-08,"MEAN_MOTION_DDOT":0.0},{"OBJECT_NAME":"ONEWEB-0520","OBJECT_ID":"2022-138AB","EPOCH":"2026-05-11T01:19:50.202624","MEAN_MOTION":13.19725012,"ECCENTRICITY":0.000182,"INCLINATION":87.9153,"RA_OF_ASC_NODE":312.3679,"ARG_OF_PERICENTER":81.6919,"MEAN_ANOMALY":278.442,"EPHEMERIS_TYPE":0,"CLASSIFICATION_TYPE":"U","NORAD_CAT_ID":54138,"ELEMENT_SET_NO":999,"REV_AT_EPOCH":17192,"BSTAR":8.4971e-05,"MEAN_MOTION_DOT":4.7e-07,"MEAN_MOTION_DDOT":0.0},{"OBJECT_NAME":"ONEWEB-0521","OBJECT_ID":"2022-138AC","EPOCH":"2026-05-11T00:18:24.776064","MEAN_MOTION":13.19724416,"ECCENTRICITY":0.0002001,"INCLINATION":87.9156,"RA_OF_ASC_NODE":312.3649,"ARG_OF_PERICENTER":95.5488,"MEAN_ANOMALY":264.5873,"EPHEMERIS_TYPE":0,"CLASSIFICATION_TYPE":"U","NORAD_CAT_ID":54139,"ELEMENT_SET_NO":999,"REV_AT_EPOCH":17186,"BSTAR":3.4580000000000004e-05,"MEAN_MOTION_DOT":2.7e-07,"MEAN_MOTION_DDOT":0.0},{"OBJECT_NAME":"ONEWEB-0522","OBJECT_ID":"2022-138AD","EPOCH":"2026-05-11T01:38:01.771584","MEAN_MOTION":13.19725314,"ECCENTRICITY":0.0001871,"INCLINATION":87.9156,"RA_OF_ASC_NODE":312.3557,"ARG_OF_PERICENTER":85.782,"MEAN_ANOMALY":274.3526,"EPHEMERIS_TYPE":0,"CLASSIFICATION_TYPE":"U","NORAD_CAT_ID":54140,"ELEMENT_SET_NO":999,"REV_AT_EPOCH":17191,"BSTAR":0.00010939000000000001,"MEAN_MOTION_DOT":5.7e-07,"MEAN_MOTION_DDOT":0.0}]